CCSDS_OMM_VERS = 2.0
CREATION_DATE  = 
ORIGINATOR     = 

OBJECT_NAME    = IRIDE FM6
OBJECT_ID      = 2025-276AL
CENTER_NAME    = EARTH
REF_FRAME      = TEME
TIME_SYSTEM    = UTC
MEAN_ELEMENT_THEORY = SGP/SGP4

EPOCH          = 2025-12-26T02:41:48.736896
MEAN_MOTION    = 15.18212155
ECCENTRICITY   = .0004224
INCLINATION    = 97.4412
RA_OF_ASC_NODE = 71.6764
ARG_OF_PERICENTER = 155.9782
MEAN_ANOMALY   = 204.1650

EPHEMERIS_TYPE = 0
CLASSIFICATION_TYPE = U
NORAD_CAT_ID   = 66700
ELEMENT_SET_NO = 999
REV_AT_EPOCH   = 415
BSTAR          = .11173E-2
MEAN_MOTION_DOT = .22847E-3
MEAN_MOTION_DDOT = 0

CCSDS_OMM_VERS = 2.0
CREATION_DATE  = 
ORIGINATOR     = 

OBJECT_NAME    = IRIDE FM7
OBJECT_ID      = 2025-276AM
CENTER_NAME    = EARTH
REF_FRAME      = TEME
TIME_SYSTEM    = UTC
MEAN_ELEMENT_THEORY = SGP/SGP4

EPOCH          = 2025-12-26T03:03:17.659008
MEAN_MOTION    = 15.17303257
ECCENTRICITY   = .0002663
INCLINATION    = 97.4415
RA_OF_ASC_NODE = 71.6566
ARG_OF_PERICENTER = 237.9367
MEAN_ANOMALY   = 122.1608

EPHEMERIS_TYPE = 0
CLASSIFICATION_TYPE = U
NORAD_CAT_ID   = 66701
ELEMENT_SET_NO = 999
REV_AT_EPOCH   = 415
BSTAR          = -.40109E-2
MEAN_MOTION_DOT = -.7909E-3
MEAN_MOTION_DDOT = 0

CCSDS_OMM_VERS = 2.0
CREATION_DATE  = 
ORIGINATOR     = 

OBJECT_NAME    = IRIDE FM8
OBJECT_ID      = 2025-276AN
CENTER_NAME    = EARTH
REF_FRAME      = TEME
TIME_SYSTEM    = UTC
MEAN_ELEMENT_THEORY = SGP/SGP4

EPOCH          = 2025-12-26T03:03:00.148320
MEAN_MOTION    = 15.17441235
ECCENTRICITY   = .0002835
INCLINATION    = 97.4393
RA_OF_ASC_NODE = 71.6482
ARG_OF_PERICENTER = 244.1084
MEAN_ANOMALY   = 115.9858

EPHEMERIS_TYPE = 0
CLASSIFICATION_TYPE = U
NORAD_CAT_ID   = 66702
ELEMENT_SET_NO = 999
REV_AT_EPOCH   = 415
BSTAR          = .4895E-3
MEAN_MOTION_DOT = .9735E-4
MEAN_MOTION_DDOT = 0

CCSDS_OMM_VERS = 2.0
CREATION_DATE  = 
ORIGINATOR     = 

OBJECT_NAME    = PELICAN-6
OBJECT_ID      = 2025-276AP
CENTER_NAME    = EARTH
REF_FRAME      = TEME
TIME_SYSTEM    = UTC
MEAN_ELEMENT_THEORY = SGP/SGP4

EPOCH          = 2025-12-26T04:36:20.489184
MEAN_MOTION    = 15.17356954
ECCENTRICITY   = .000112
INCLINATION    = 97.4401
RA_OF_ASC_NODE = 71.7168
ARG_OF_PERICENTER = 213.8850
MEAN_ANOMALY   = 146.2312

EPHEMERIS_TYPE = 0
CLASSIFICATION_TYPE = U
NORAD_CAT_ID   = 66703
ELEMENT_SET_NO = 999
REV_AT_EPOCH   = 416
BSTAR          = .22018E-3
MEAN_MOTION_DOT = .4328E-4
MEAN_MOTION_DDOT = 0

CCSDS_OMM_VERS = 2.0
CREATION_DATE  = 
ORIGINATOR     = 

OBJECT_NAME    = FLOCK 4H-1
OBJECT_ID      = 2025-276AQ
CENTER_NAME    = EARTH
REF_FRAME      = TEME
TIME_SYSTEM    = UTC
MEAN_ELEMENT_THEORY = SGP/SGP4

EPOCH          = 2025-12-26T01:09:18.540864
MEAN_MOTION    = 15.18199501
ECCENTRICITY   = .0001656
INCLINATION    = 97.4380
RA_OF_ASC_NODE = 71.5943
ARG_OF_PERICENTER = 285.8602
MEAN_ANOMALY   = 74.2449

EPHEMERIS_TYPE = 0
CLASSIFICATION_TYPE = U
NORAD_CAT_ID   = 66704
ELEMENT_SET_NO = 999
REV_AT_EPOCH   = 414
BSTAR          = .49698E-3
MEAN_MOTION_DOT = .10102E-3
MEAN_MOTION_DDOT = 0

CCSDS_OMM_VERS = 2.0
CREATION_DATE  = 
ORIGINATOR     = 

OBJECT_NAME    = FLOCK 4H-2
OBJECT_ID      = 2025-276AR
CENTER_NAME    = EARTH
REF_FRAME      = TEME
TIME_SYSTEM    = UTC
MEAN_ELEMENT_THEORY = SGP/SGP4

EPOCH          = 2025-12-26T04:18:21.996000
MEAN_MOTION    = 15.18183491
ECCENTRICITY   = .0001555
INCLINATION    = 97.4370
RA_OF_ASC_NODE = 71.7228
ARG_OF_PERICENTER = 151.5614
MEAN_ANOMALY   = 208.5705

EPHEMERIS_TYPE = 0
CLASSIFICATION_TYPE = U
NORAD_CAT_ID   = 66705
ELEMENT_SET_NO = 999
REV_AT_EPOCH   = 416
BSTAR          = .34129E-3
MEAN_MOTION_DOT = .691E-4
MEAN_MOTION_DDOT = 0

CCSDS_OMM_VERS = 2.0
CREATION_DATE  = 
ORIGINATOR     = 

OBJECT_NAME    = FLOCK 4H-3
OBJECT_ID      = 2025-276AS
CENTER_NAME    = EARTH
REF_FRAME      = TEME
TIME_SYSTEM    = UTC
MEAN_ELEMENT_THEORY = SGP/SGP4

EPOCH          = 2025-12-26T04:34:49.355328
MEAN_MOTION    = 15.17514743
ECCENTRICITY   = .0003038
INCLINATION    = 97.4438
RA_OF_ASC_NODE = 71.7335
ARG_OF_PERICENTER = 230.3563
MEAN_ANOMALY   = 129.7402

EPHEMERIS_TYPE = 0
CLASSIFICATION_TYPE = U
NORAD_CAT_ID   = 66706
ELEMENT_SET_NO = 999
REV_AT_EPOCH   = 416
BSTAR          = .26125E-3
MEAN_MOTION_DOT = .5172E-4
MEAN_MOTION_DDOT = 0

CCSDS_OMM_VERS = 2.0
CREATION_DATE  = 
ORIGINATOR     = 

OBJECT_NAME    = FLOCK 4H-4
OBJECT_ID      = 2025-276AT
CENTER_NAME    = EARTH
REF_FRAME      = TEME
TIME_SYSTEM    = UTC
MEAN_ELEMENT_THEORY = SGP/SGP4

EPOCH          = 2025-12-26T03:06:21.282336
MEAN_MOTION    = 15.17251353
ECCENTRICITY   = .0003622
INCLINATION    = 97.4422
RA_OF_ASC_NODE = 71.6566
ARG_OF_PERICENTER = 236.0309
MEAN_ANOMALY   = 124.0581

EPHEMERIS_TYPE = 0
CLASSIFICATION_TYPE = U
NORAD_CAT_ID   = 66707
ELEMENT_SET_NO = 999
REV_AT_EPOCH   = 415
BSTAR          = .47101E-3
MEAN_MOTION_DOT = .9313E-4
MEAN_MOTION_DDOT = 0

CCSDS_OMM_VERS = 2.0
CREATION_DATE  = 
ORIGINATOR     = 

OBJECT_NAME    = FLOCK 4H-5
OBJECT_ID      = 2025-276AU
CENTER_NAME    = EARTH
REF_FRAME      = TEME
TIME_SYSTEM    = UTC
MEAN_ELEMENT_THEORY = SGP/SGP4

EPOCH          = 2025-12-26T04:16:33.962304
MEAN_MOTION    = 15.18210787
ECCENTRICITY   = .0001297
INCLINATION    = 97.4376
RA_OF_ASC_NODE = 71.7279
ARG_OF_PERICENTER = 123.7101
MEAN_ANOMALY   = 236.4257

EPHEMERIS_TYPE = 0
CLASSIFICATION_TYPE = U
NORAD_CAT_ID   = 66708
ELEMENT_SET_NO = 999
REV_AT_EPOCH   = 416
BSTAR          = .45849E-3
MEAN_MOTION_DOT = .9317E-4
MEAN_MOTION_DDOT = 0

CCSDS_OMM_VERS = 2.0
CREATION_DATE  = 
ORIGINATOR     = 

OBJECT_NAME    = FLOCK 4H-6
OBJECT_ID      = 2025-276AV
CENTER_NAME    = EARTH
REF_FRAME      = TEME
TIME_SYSTEM    = UTC
MEAN_ELEMENT_THEORY = SGP/SGP4

EPOCH          = 2025-12-26T02:47:41.966016
MEAN_MOTION    = 15.17950603
ECCENTRICITY   = .000294
INCLINATION    = 97.4425
RA_OF_ASC_NODE = 71.6780
ARG_OF_PERICENTER = 193.0810
MEAN_ANOMALY   = 167.0348

EPHEMERIS_TYPE = 0
CLASSIFICATION_TYPE = U
NORAD_CAT_ID   = 66709
ELEMENT_SET_NO = 999
REV_AT_EPOCH   = 415
BSTAR          = .32191E-3
MEAN_MOTION_DOT = .6471E-4
MEAN_MOTION_DDOT = 0

CCSDS_OMM_VERS = 2.0
CREATION_DATE  = 
ORIGINATOR     = 

OBJECT_NAME    = FLOCK 4H-7
OBJECT_ID      = 2025-276AW
CENTER_NAME    = EARTH
REF_FRAME      = TEME
TIME_SYSTEM    = UTC
MEAN_ELEMENT_THEORY = SGP/SGP4

EPOCH          = 2025-12-26T02:59:37.165344
MEAN_MOTION    = 15.17524159
ECCENTRICITY   = .0000998
INCLINATION    = 97.4384
RA_OF_ASC_NODE = 71.6447
ARG_OF_PERICENTER = 265.0180
MEAN_ANOMALY   = 95.0940

EPHEMERIS_TYPE = 0
CLASSIFICATION_TYPE = U
NORAD_CAT_ID   = 66710
ELEMENT_SET_NO = 999
REV_AT_EPOCH   = 415
BSTAR          = .27429E-3
MEAN_MOTION_DOT = .5435E-4
MEAN_MOTION_DDOT = 0

CCSDS_OMM_VERS = 2.0
CREATION_DATE  = 
ORIGINATOR     = 

OBJECT_NAME    = FLOCK 4H-8
OBJECT_ID      = 2025-276AX
CENTER_NAME    = EARTH
REF_FRAME      = TEME
TIME_SYSTEM    = UTC
MEAN_ELEMENT_THEORY = SGP/SGP4

EPOCH          = 2025-12-26T04:00:01.998720
MEAN_MOTION    = 15.17513017
ECCENTRICITY   = .000226
INCLINATION    = 97.4426
RA_OF_ASC_NODE = 71.7085
ARG_OF_PERICENTER = 251.0857
MEAN_ANOMALY   = 336.8082

EPHEMERIS_TYPE = 0
CLASSIFICATION_TYPE = U
NORAD_CAT_ID   = 66711
ELEMENT_SET_NO = 999
REV_AT_EPOCH   = 216
BSTAR          = .24769E-2
MEAN_MOTION_DOT = .499E-3
MEAN_MOTION_DDOT = 0

