IRIDE FM6               
1 66700U 25276AL  25360.11236964  .00022847  00000+0  11173-2 0  9996
2 66700  97.4412  71.6764 0004224 155.9782 204.1650 15.18212155  4157
IRIDE FM7               
1 66701U 25276AM  25360.12728772 -.00079090  00000+0 -40109-2 0  9996
2 66701  97.4415  71.6566 0002663 237.9367 122.1608 15.17303257  4151
IRIDE FM8               
1 66702U 25276AN  25360.12708505  .00009735  00000+0  48950-3 0  9999
2 66702  97.4393  71.6482 0002835 244.1084 115.9858 15.17441235  4157
PELICAN-6               
1 66703U 25276AP  25360.19190381  .00004328  00000+0  22018-3 0  9994
2 66703  97.4401  71.7168 0001120 213.8850 146.2312 15.17356954  4166
FLOCK 4H-1              
1 66704U 25276AQ  25360.04813126  .00010102  00000+0  49698-3 0  9998
2 66704  97.4380  71.5943 0001656 285.8602  74.2449 15.18199501  4143
FLOCK 4H-2              
1 66705U 25276AR  25360.17942125  .00006910  00000+0  34129-3 0  9990
2 66705  97.4370  71.7228 0001555 151.5614 208.5705 15.18183491  4161
FLOCK 4H-3              
1 66706U 25276AS  25360.19084902  .00005172  00000+0  26125-3 0  9999
2 66706  97.4438  71.7335 0003038 230.3563 129.7402 15.17514743  4168
FLOCK 4H-4              
1 66707U 25276AT  25360.12941299  .00009313  00000+0  47101-3 0  9992
2 66707  97.4422  71.6566 0003622 236.0309 124.0581 15.17251353  4157
FLOCK 4H-5              
1 66708U 25276AU  25360.17817086  .00009317  00000+0  45849-3 0  9995
2 66708  97.4376  71.7279 0001297 123.7101 236.4257 15.18210787  4162
FLOCK 4H-6              
1 66709U 25276AV  25360.11645794  .00006471  00000+0  32191-3 0  9999
2 66709  97.4425  71.6780 0002940 193.0810 167.0348 15.17950603  4153
FLOCK 4H-7              
1 66710U 25276AW  25360.12473571  .00005435  00000+0  27429-3 0  9991
2 66710  97.4384  71.6447 0000998 265.0180  95.0940 15.17524159  4151
FLOCK 4H-8              
1 66711U 25276AX  25360.16668980  .00049900  00000+0  24769-2 0  9994
2 66711  97.4426  71.7085 0002260 251.0857 336.8082 15.17513017  2161
